{"type": "FeatureCollection", "features": [ {"type": "Feature", "properties": {"norad_id": 30396, "name": "FENGYUN 1C DEB", "group": "fengyun-1c-debris", "lat": -50.4121698018589, "lon": 2.6803915796031346, "alt_km": 1044.1428322263728, "timestamp": "2025-12-13T22:39:29.986291+00:00", "meta": {"OBJECT_NAME": "FENGYUN 1C DEB", "OBJECT_ID": "1999-025ADK", "EPOCH": "2025-12-12T22:57:41.695776", "MEAN_MOTION": 13.87168791, "ECCENTRICITY": 0.01350168, "INCLINATION": 98.2241, "RA_OF_ASC_NODE": 351.7386, "ARG_OF_PERICENTER": 129.1237, "MEAN_ANOMALY": 291.9075, "EPHEMERIS_TYPE": 0, "CLASSIFICATION_TYPE": "U", "NORAD_CAT_ID": 30396, "ELEMENT_SET_NO": 999, "REV_AT_EPOCH": 95582, "BSTAR": 0.00015413942, "MEAN_MOTION_DOT": 1.59e-06, "MEAN_MOTION_DDOT": 0}, "tle": {"line1": "1 30396U 99025ADK 25346.95673259  .00000159  00000+0  15414-3 0  9994", "line2": "2 30396  98.2241 351.7386 0135016 129.1237 291.9075 13.87168791955826"}}, "geometry": {"type": "Point", "coordinates": [2.6803915796031346, -50.4121698018589]}}, {"type": "Feature", "properties": {"norad_id": 30397, "name": "FENGYUN 1C DEB", "group": "fengyun-1c-debris", "lat": -63.730209767353564, "lon": -61.38218340750614, "alt_km": 1004.8985002931176, "timestamp": "2025-12-13T22:39:29.986301+00:00", "meta": {"OBJECT_NAME": "FENGYUN 1C DEB", "OBJECT_ID": "1999-025ADL", "EPOCH": "2025-12-13T08:03:19.767744", "MEAN_MOTION": 13.9859147, "ECCENTRICITY": 0.01496529, "INCLINATION": 98.405, "RA_OF_ASC_NODE": 135.4901, "ARG_OF_PERICENTER": 90.8923, "MEAN_ANOMALY": 331.5584, "EPHEMERIS_TYPE": 0, "CLASSIFICATION_TYPE": "U", "NORAD_CAT_ID": 30397, "ELEMENT_SET_NO": 999, "REV_AT_EPOCH": 95773, "BSTAR": 0.0015869511, "MEAN_MOTION_DOT": 2.468e-05, "MEAN_MOTION_DDOT": 0}, "tle": {"line1": "1 30397U 99025ADL 25347.33564546  .00002468  00000+0  15870-2 0  9996", "line2": "2 30397  98.4050 135.4901 0149652  90.8923 331.5584 13.98591470957738"}}, "geometry": {"type": "Point", "coordinates": [-61.38218340750614, -63.730209767353564]}}, {"type": "Feature", "properties": {"norad_id": 30398, "name": "FENGYUN 1C DEB", "group": "fengyun-1c-debris", "lat": -32.44719494351651, "lon": 58.243984826832104, "alt_km": 950.4196942158205, "timestamp": "2025-12-13T22:39:29.986311+00:00", "meta": {"OBJECT_NAME": "FENGYUN 1C DEB", "OBJECT_ID": "1999-025ADM", "EPOCH": "2025-12-12T16:08:38.225760", "MEAN_MOTION": 13.78697909, "ECCENTRICITY": 0.01728016, "INCLINATION": 99.714, "RA_OF_ASC_NODE": 243.1938, "ARG_OF_PERICENTER": 296.2401, "MEAN_ANOMALY": 91.376, "EPHEMERIS_TYPE": 0, "CLASSIFICATION_TYPE": "U", "NORAD_CAT_ID": 30398, "ELEMENT_SET_NO": 999, "REV_AT_EPOCH": 94756, "BSTAR": 0.00072688071, "MEAN_MOTION_DOT": 7.77e-06, "MEAN_MOTION_DDOT": 0}, "tle": {"line1": "1 30398U 99025ADM 25346.67266465  .00000777  00000+0  72688-3 0  9994", "line2": "2 30398  99.7140 243.1938 0172801 296.2401  91.3760 13.78697909947564"}}, "geometry": {"type": "Point", "coordinates": [58.243984826832104, -32.44719494351651]}}, {"type": "Feature", "properties": {"norad_id": 30400, "name": "FENGYUN 1C DEB", "group": "fengyun-1c-debris", "lat": 5.4228560670289605, "lon": 96.36594649513296, "alt_km": 1013.5656364991946, "timestamp": "2025-12-13T22:39:29.986321+00:00", "meta": {"OBJECT_NAME": "FENGYUN 1C DEB", "OBJECT_ID": "1999-025ADP", "EPOCH": "2025-12-12T18:49:42.647232", "MEAN_MOTION": 14.09979059, "ECCENTRICITY": 0.02272362, "INCLINATION": 99.1548, "RA_OF_ASC_NODE": 274.3083, "ARG_OF_PERICENTER": 335.7608, "MEAN_ANOMALY": 76.876, "EPHEMERIS_TYPE": 0, "CLASSIFICATION_TYPE": "U", "NORAD_CAT_ID": 30400, "ELEMENT_SET_NO": 999, "REV_AT_EPOCH": 95515, "BSTAR": 0.0062252104, "MEAN_MOTION_DOT": 0.00013934, "MEAN_MOTION_DDOT": 0}, "tle": {"line1": "1 30400U 99025ADP 25346.78452138  .00013934  00000+0  62252-2 0  9998", "line2": "2 30400  99.1548 274.3083 0227236 335.7608  76.8760 14.09979059955158"}}, "geometry": {"type": "Point", "coordinates": [96.36594649513296, 5.4228560670289605]}}, {"type": "Feature", "properties": {"norad_id": 30401, "name": "FENGYUN 1C DEB", "group": "fengyun-1c-debris", "lat": -79.02543994491825, "lon": -80.80557060140329, "alt_km": 874.2043041030211, "timestamp": "2025-12-13T22:39:29.986331+00:00", "meta": {"OBJECT_NAME": "FENGYUN 1C DEB", "OBJECT_ID": "1999-025ADQ", "EPOCH": "2025-12-13T02:52:38.172864", "MEAN_MOTION": 14.2799187, "ECCENTRICITY": 0.01078944, "INCLINATION": 98.9472, "RA_OF_ASC_NODE": 224.0188, "ARG_OF_PERICENTER": 126.3897, "MEAN_ANOMALY": 234.7295, "EPHEMERIS_TYPE": 0, "CLASSIFICATION_TYPE": "U", "NORAD_CAT_ID": 30401, "ELEMENT_SET_NO": 999, "REV_AT_EPOCH": 98309, "BSTAR": 0.0002032056, "MEAN_MOTION_DOT": 4.91e-06, "MEAN_MOTION_DDOT": 0}, "tle": {"line1": "1 30401U 99025ADQ 25347.11988626  .00000491  00000+0  20321-3 0  9999", "line2": "2 30401  98.9472 224.0188 0107894 126.3897 234.7295 14.27991870983098"}}, "geometry": {"type": "Point", "coordinates": [-80.80557060140329, -79.02543994491825]}}, {"type": "Feature", "properties": {"norad_id": 30403, "name": "FENGYUN 1C DEB", "group": "fengyun-1c-debris", "lat": 58.09361220629972, "lon": 51.55166470028748, "alt_km": 773.0520066727904, "timestamp": "2025-12-13T22:39:29.986341+00:00", "meta": {"OBJECT_NAME": "FENGYUN 1C DEB", "OBJECT_ID": "1999-025ADS", "EPOCH": "2025-12-13T03:48:09.937440", "MEAN_MOTION": 14.21538215, "ECCENTRICITY": 0.00746166, "INCLINATION": 99.0598, "RA_OF_ASC_NODE": 65.5947, "ARG_OF_PERICENTER": 21.7616, "MEAN_ANOMALY": 338.6703, "EPHEMERIS_TYPE": 0, "CLASSIFICATION_TYPE": "U", "NORAD_CAT_ID": 30403, "ELEMENT_SET_NO": 999, "REV_AT_EPOCH": 96812, "BSTAR": 0.0027652664, "MEAN_MOTION_DOT": 6.188e-05, "MEAN_MOTION_DDOT": 0}, "tle": {"line1": "1 30403U 99025ADS 25347.15844835  .00006188  00000+0  27653-2 0  9991", "line2": "2 30403  99.0598  65.5947 0074616  21.7616 338.6703 14.21538215968123"}}, "geometry": {"type": "Point", "coordinates": [51.55166470028748, 58.09361220629972]}}, {"type": "Feature", "properties": {"norad_id": 30404, "name": "FENGYUN 1C DEB", "group": "fengyun-1c-debris", "lat": 72.82949106823717, "lon": -66.1768340250846, "alt_km": 875.3638483034401, "timestamp": "2025-12-13T22:39:29.986352+00:00", "meta": {"OBJECT_NAME": "FENGYUN 1C DEB", "OBJECT_ID": "1999-025ADT", "EPOCH": "2025-12-12T17:21:02.225952", "MEAN_MOTION": 13.34347251, "ECCENTRICITY": 0.03760646, "INCLINATION": 99.8338, "RA_OF_ASC_NODE": 78.5007, "ARG_OF_PERICENTER": 136.7013, "MEAN_ANOMALY": 226.4325, "EPHEMERIS_TYPE": 0, "CLASSIFICATION_TYPE": "U", "NORAD_CAT_ID": 30404, "ELEMENT_SET_NO": 999, "REV_AT_EPOCH": 58036, "BSTAR": 0.0016204308, "MEAN_MOTION_DOT": 1.166e-05, "MEAN_MOTION_DDOT": 0}, "tle": {"line1": "1 30404U 99025ADT 25346.72294243  .00001166  00000+0  16204-2 0  9997", "line2": "2 30404  99.8338  78.5007 0376064 136.7013 226.4325 13.34347251580366"}}, "geometry": {"type": "Point", "coordinates": [-66.1768340250846, 72.82949106823717]}}, {"type": "Feature", "properties": {"norad_id": 30405, "name": "FENGYUN 1C DEB", "group": "fengyun-1c-debris", "lat": -81.05975620052313, "lon": -177.78339412170524, "alt_km": 819.8418691345723, "timestamp": "2025-12-13T22:39:29.986362+00:00", "meta": {"OBJECT_NAME": "FENGYUN 1C DEB", "OBJECT_ID": "1999-025ADU", "EPOCH": "2025-12-13T00:23:14.241120", "MEAN_MOTION": 14.28922975, "ECCENTRICITY": 0.00514086, "INCLINATION": 98.7935, "RA_OF_ASC_NODE": 81.0036, "ARG_OF_PERICENTER": 153.0114, "MEAN_ANOMALY": 24.0202, "EPHEMERIS_TYPE": 0, "CLASSIFICATION_TYPE": "U", "NORAD_CAT_ID": 30405, "ELEMENT_SET_NO": 999, "REV_AT_EPOCH": 97399, "BSTAR": 0.0026336511, "MEAN_MOTION_DOT": 6.708e-05, "MEAN_MOTION_DDOT": 0}, "tle": {"line1": "1 30405U 99025ADU 25347.01613705  .00006708  00000+0  26337-2 0  9994", "line2": "2 30405  98.7935  81.0036 0051408 153.0114  24.0202 14.28922975973992"}}, "geometry": {"type": "Point", "coordinates": [-177.78339412170524, -81.05975620052313]}}, {"type": "Feature", "properties": {"norad_id": 30406, "name": "FENGYUN 1C DEB", "group": "fengyun-1c-debris", "lat": -72.83209542782403, "lon": -92.12863660455405, "alt_km": 974.7823971705993, "timestamp": "2025-12-13T22:39:29.986373+00:00", "meta": {"OBJECT_NAME": "FENGYUN 1C DEB", "OBJECT_ID": "1999-025ADV", "EPOCH": "2025-12-13T04:19:22.795680", "MEAN_MOTION": 13.59215571, "ECCENTRICITY": 0.02831769, "INCLINATION": 98.6203, "RA_OF_ASC_NODE": 237.7918, "ARG_OF_PERICENTER": 358.6993, "MEAN_ANOMALY": 153.0342, "EPHEMERIS_TYPE": 0, "CLASSIFICATION_TYPE": "U", "NORAD_CAT_ID": 30406, "ELEMENT_SET_NO": 999, "REV_AT_EPOCH": 93172, "BSTAR": 0.003175457, "MEAN_MOTION_DOT": 3.008e-05, "MEAN_MOTION_DDOT": 0}, "tle": {"line1": "1 30406U 99025ADV 25347.18012495  .00003008  00000+0  31755-2 0  9992", "line2": "2 30406  98.6203 237.7918 0283176 358.6993 153.0342 13.59215571931729"}}, "geometry": {"type": "Point", "coordinates": [-92.12863660455405, -72.83209542782403]}}, {"type": "Feature", "properties": {"norad_id": 30409, "name": "FENGYUN 1C DEB", "group": "fengyun-1c-debris", "lat": -40.88035667729177, "lon": 147.834512056069, "alt_km": 981.0118777863709, "timestamp": "2025-12-13T22:39:29.986383+00:00", "meta": {"OBJECT_NAME": "FENGYUN 1C DEB", "OBJECT_ID": "1999-025ADY", "EPOCH": "2025-12-13T04:46:10.054272", "MEAN_MOTION": 14.03735902, "ECCENTRICITY": 0.01678291, "INCLINATION": 98.4733, "RA_OF_ASC_NODE": 334.5533, "ARG_OF_PERICENTER": 4.2714, "MEAN_ANOMALY": 53.7061, "EPHEMERIS_TYPE": 0, "CLASSIFICATION_TYPE": "U", "NORAD_CAT_ID": 30409, "ELEMENT_SET_NO": 999, "REV_AT_EPOCH": 96436, "BSTAR": 0.0014907019, "MEAN_MOTION_DOT": 2.618e-05, "MEAN_MOTION_DDOT": 0}, "tle": {"line1": "1 30409U 99025ADY 25347.19872748  .00002618  00000+0  14907-2 0  9997", "line2": "2 30409  98.4733 334.5533 0167829   4.2714  53.7061 14.03735902964363"}}, "geometry": {"type": "Point", "coordinates": [147.834512056069, -40.88035667729177]}}]}